STARLINK-32718          
1 62496U 25003K   26027.74674951  .00035635  00000+0  12973-2 0  9992
2 62496  43.0049 159.8700 0002571 241.7696 118.2896 15.27601096 60298
STARLINK-32729          
1 62497U 25003L   26027.75446785  .00037780  00000+0  13739-2 0  9990
2 62497  43.0035 159.9192 0001131 300.0114  60.0625 15.27616008 60412
STARLINK-32739          
1 62498U 25003M   26027.76987499  .00041906  00000+0  15219-2 0  9994
2 62498  42.9999 160.0395 0003588 243.9527 116.0955 15.27615180 60361
STARLINK-32714          
1 62499U 25003N   26027.73276726  .00055454  00000+0  20071-2 0  9991
2 62499  42.9992 160.6269 0001897 277.7964  82.2672 15.27620579 60405
STARLINK-32685          
1 62500U 25003P   26027.79043309  .00052950  00000+0  19172-2 0  9997
2 62500  42.9975 160.1977 0003489 251.2437 108.8036 15.27622107 60364
STARLINK-32691          
1 62501U 25003Q   26027.76859844  .00012083  00000+0  44767-3 0  9996
2 62501  43.0012 160.0295 0001121 287.6293  72.4436 15.27595439 60407
STARLINK-32788          
1 62502U 25003R   26027.76473016  .00034004  00000+0  12380-2 0  9992
2 62502  43.0100 159.9917 0004416 240.7017 119.3394 15.27614188 60292
STARLINK-32768          
1 62503U 25003S   26027.74801609  .00036040  00000+0  13118-2 0  9996
2 62503  42.9991 159.8778 0005674 241.2788 118.7493 15.27592772 60298
STARLINK-32792          
1 62504U 25003T   26027.73904088  .00038244  00000+0  13907-2 0  9995
2 62504  43.0010 159.8062 0001681 259.6775 100.3887 15.27612490 60296
STARLINK-32725          
1 62505U 25003U   26027.74032139  .00031608  00000+0  11522-2 0  9994
2 62505  42.9996 159.8036 0001972 248.8254 111.2387 15.27607780 60296
STARLINK-32681          
1 62506U 25003V   26027.70925815  .00042014  00000+0  15255-2 0  9993
2 62506  43.0004 141.8497 0003605 246.3296 113.7177 15.27622212 60612
STARLINK-32679          
1 62507U 25003W   26027.67122978  .00045991  00000+0  16686-2 0  9995
2 62507  42.9994 160.9835 0000460 272.4774  87.6025 15.27615745 60393
STARLINK-32749          
1 62508U 25003X   26027.62754546  .00042237  00000+0  15345-2 0  9994
2 62508  43.0000 160.6863 0002054 257.1100 102.9522 15.27603123 60273
STARLINK-32744          
1 62509U 25003Y   26027.72891485  .00056506  00000+0  20448-2 0  9994
2 62509  42.9998 160.5973 0001684 270.5856  89.4802 15.27618628 60281
STARLINK-32701          
1 62510U 25003Z   26027.70706960  .00036078  00000+0  13131-2 0  9990
2 62510  42.9984 160.4289 0001079 299.9247  60.1497 15.27607965 60282
STARLINK-11452 [DTC]    
1 62511U 25004A   26027.83631836 -.00035371  00000+0 -27292-3 0  9996
2 62511  43.0004 316.9561 0001659 301.2685  58.8020 15.70875107 61703
STARLINK-11443 [DTC]    
1 62512U 25004B   26027.74100812  .00237775  00000+0  18099-2 0  9996
2 62512  42.9993 317.9786 0001563 252.9666 107.1030 15.70761580 60767
STARLINK-11440 [DTC]    
1 62513U 25004C   26027.85223872  .00242324  00000+0  18317-2 0  9990
2 62513  42.9983 317.0821 0003693 287.6481  72.3984 15.70911167 60785
STARLINK-11514 [DTC]    
1 62514U 25004D   26027.83192384  .00275141  00000+0  20803-2 0  9998
2 62514  42.9994 316.9209 0001128 246.6470 113.4279 15.70808456 60780
STARLINK-11508 [DTC]    
1 62515U 25004E   26027.82570236  .00120003  00000+0  92744-3 0  9994
2 62515  43.0002 316.8716 0001431 287.9372  72.1340 15.70783916 60784
STARLINK-11510 [DTC]    
1 62516U 25004F   26027.79397539  .00253943  00000+0  19259-2 0  9993
2 62516  42.9995 317.5093 0001244 285.5363  74.5367 15.70800153 60773
STARLINK-11512 [DTC]    
1 62517U 25004G   26026.98319368  .00197220  00000+0  15013-2 0  9997
2 62517  42.9997 321.7216 0001671 276.9453  83.1224 15.70888020 60652
STARLINK-11450 [DTC]    
1 62518U 25004H   26027.84162682  .00437046  00000+0  31785-2 0  9996
2 62518  42.9989 316.9920 0003064 185.2770 174.8066 15.71250137 60783
STARLINK-11507 [DTC]    
1 62519U 25004J   26026.82960970  .00259018  00000+0  19598-2 0  9999
2 62519  42.9972 323.1687 0001359 210.0155 150.0635 15.70840259 60625
STARLINK-11482 [DTC]    
1 62520U 25004K   26027.81508225  .00184923  00000+0  14114-2 0  9993
2 62520  43.0000 316.7829 0002227 275.4274  84.6340 15.70862985 60781
STARLINK-11528 [DTC]    
1 62521U 25004L   26027.79928405  .00337924  00000+0  25042-2 0  9990
2 62521  42.9993 317.5442 0001375 205.8212 154.2588 15.71097307 60779
STARLINK-11516 [DTC]    
1 62522U 25004M   26027.83101205  .00261044  00000+0  19801-2 0  9992
2 62522  42.9986 316.9093 0000803 303.0179  57.0611 15.70774086 60788
STARLINK-11527 [DTC]    
1 62523U 25004N   26027.82039527  .00255264  00000+0  19350-2 0  9995
2 62523  42.9995 316.8228 0001295 266.0216  94.0503 15.70807493 60784
STARLINK-32748          
1 62524U 25004P   26027.58103044  .00043587  00000+0  15827-2 0  9993
2 62524  43.0008  91.8552 0001523 281.0582  79.0098 15.27609178 60176
STARLINK-32777          
1 62525U 25004Q   26026.57467522  .00044734  00000+0  16227-2 0  9996
2 62525  42.9987  98.0690 0001862 263.9678  96.0962 15.27631220 60019
STARLINK-32741          
1 62526U 25004R   26027.54440704  .00039013  00000+0  14185-2 0  9993
2 62526  43.0015  88.9777 0001618  48.9945 311.1046 15.27608711 60209
STARLINK-32754          
1 62527U 25004S   26027.53106705  .00041477  00000+0  15068-2 0  9991
2 62527  42.9974  92.3348 0000972   9.9652 350.1218 15.27613023 59214
STARLINK-32786          
1 62528U 25004T   26027.56304781  .00039863  00000+0  14488-2 0  9990
2 62528  43.0027  91.7164 0001365  69.3908 290.7090 15.27613706 59222
STARLINK-32789          
1 62529U 25004U   26027.53748226  .00031326  00000+0  11425-2 0  9998
2 62529  42.9989  92.3781 0002001 259.4239 100.6387 15.27596421 60164
STARLINK-32791          
1 62530U 25004V   26027.58874766  .00044004  00000+0  15982-2 0  9993
2 62530  42.9959  91.9034 0001290 202.5996 157.4798 15.27598481 60172
STARLINK-32785          
1 62531U 25004W   26027.54519622  .00057757  00000+0  20894-2 0  9994
2 62531  43.0019  92.4504 0001566 290.0761  69.9922 15.27619812 60165
STARLINK-11538 [DTC]    
1 62554U 25006A   26027.27929683  .00317954  00000+0  23774-2 0  9991
2 62554  42.9993  29.1447 0000770 252.6416 107.4368 15.70943061 60097
STARLINK-11534 [DTC]    
1 62555U 25006B   26027.03027803  .00305088  00000+0  22875-2 0  9995
2 62555  42.9984  30.7213 0001413 272.4317  87.6389 15.70917081 60053
STARLINK-11515 [DTC]    
1 62556U 25006C   26027.70859432  .00271437  00000+0  20381-2 0  9991
2 62556  43.0001  27.2312 0001451  25.7266 334.3673 15.70985249 60151
STARLINK-11478 [DTC]    
1 62557U 25006D   26027.05151189  .00194975  00000+0  14858-2 0  9997
2 62557  42.9997  30.8917 0002121 260.2984  99.7644 15.70868282 60059
STARLINK-11358 [DTC]    
1 62558U 25006E   26027.30053459  .00330085  00000+0  24659-2 0  9991
2 62558  42.9994  29.3129 0001071 253.9487 106.1263 15.70928916 60090
STARLINK-11517 [DTC]    
1 62559U 25006F   26027.31115393  .00369587  00000+0  27424-2 0  9991
2 62559  43.0005  29.3987 0001302 258.1362 101.9360 15.70971994 60099
STARLINK-11519 [DTC]    
1 62560U 25006G   26027.33330750  .00280712  00000+0  20955-2 0  9995
2 62560  42.9979  29.5784 0001864 310.6228  49.4478 15.71095872 60093
STARLINK-11451 [DTC]    
1 62561U 25006H   26027.03558752  .00278743  00000+0  20589-2 0  9991
2 62561  42.9991  30.7605 0003246 210.7851 149.2827 15.71351520 60050
STARLINK-11530 [DTC]    
1 62562U 25006J   26027.33238967  .00165246  00000+0  12612-2 0  9999
2 62562  42.9983  29.5692 0000760 229.3524 130.7278 15.70928143 60094
STARLINK-11536 [DTC]    
1 62563U 25006K   26027.29522583  .00290306  00000+0  21806-2 0  9996
2 62563  42.9996  29.2690 0001018 242.2514 117.8250 15.70918749 60091
STARLINK-11540 [DTC]    
1 62564U 25006L   26027.06213168  .00255319  00000+0  19300-2 0  9999
2 62564  42.9994  30.9723 0001471 248.5093 111.5618 15.70873613 60055
STARLINK-11523 [DTC]    
1 62565U 25006M   26027.32179464  .00318614  00000+0  23924-2 0  9994
2 62565  42.9980  29.4909 0002469  14.0478 346.0458 15.70840817 60092
STARLINK-11525 [DTC]    
1 62566U 25006N   26027.71919775  .00093826  00000+0  72521-3 0  9998
2 62566  42.9970  27.3088 0002493 265.4288  94.6295 15.70879484 60159
STARLINK-32752          
1 62567U 25006P   26027.77073457  .00034017  00000+0  12390-2 0  9997
2 62567  42.9990 163.7517 0001360 307.0524  53.0203 15.27607226 58602
STARLINK-32760          
1 62568U 25006Q   26026.79506754  .00040688  00000+0  14788-2 0  9994
2 62568  43.0012 169.3138 0002238 274.6685  85.3911 15.27603695 58456
STARLINK-32715          
1 62569U 25006R   26027.78485401  .00031097  00000+0  11341-2 0  9996
2 62569  42.9986 163.8534 0003295 242.9442 117.1073 15.27597985 58601
STARLINK-32764          
1 62570U 25006S   26027.72718167  .00037479  00000+0  13635-2 0  9998
2 62570  42.9989 164.2781 0001688 269.3120  90.7538 15.27605320 58598
STARLINK-32773          
1 62571U 25006T   26027.75273523  .00035947  00000+0  13069-2 0  9993
2 62571  43.0008 163.6148 0001459 269.7407  90.3277 15.27642851 58609
STARLINK-32750          
1 62572U 25006U   26027.73473705  .00046539  00000+0  16857-2 0  9993
2 62572  42.9987 163.4672 0001101 291.8771  68.1964 15.27666244 58606
STARLINK-32771          
1 62573U 25006V   26027.74502174  .00045777  00000+0  16603-2 0  9990
2 62573  43.0004 163.5517 0001689 266.4108  93.6551 15.27628074 58605
STARLINK-32766          
1 62574U 25006W   26027.76300389  .00045541  00000+0  16532-2 0  9997
2 62574  42.9948 163.6947 0003450 249.5514 110.4968 15.27597687 58605
CENTISPACE-1 S7         
1 62576U 25007B   26027.62325112 -.00000080  00000+0  45434-4 0  9991
2 62576  54.9765  66.5354 0009101 256.0910 103.9043 14.00806876 55254
CENTISPACE-1 S8         
1 62577U 25007C   26027.39382335 -.00000007  00000+0  93580-4 0  9990
2 62577  54.9842  66.8324 0008235 264.0948  95.9079 14.01010352 55232
